[{"OBJECT_NAME":"ORBCOMM FM19","OBJECT_ID":"1998-046C","EPOCH":"2026-03-09T00:07:17.563296","MEAN_MOTION":14.39270127,"ECCENTRICITY":0.00018158,"INCLINATION":44.9959,"RA_OF_ASC_NODE":359.683,"ARG_OF_PERICENTER":187.4459,"MEAN_ANOMALY":272.3467,"EPHEMERIS_TYPE":0,"CLASSIFICATION_TYPE":"U","NORAD_CAT_ID":25415,"ELEMENT_SET_NO":999,"REV_AT_EPOCH":44234,"BSTAR":0.00058926699,"MEAN_MOTION_DOT":1.703e-5,"MEAN_MOTION_DDOT":0},{"OBJECT_NAME":"FENGYUN 1C DEB","OBJECT_ID":"1999-025KD","EPOCH":"2026-03-09T05:33:32.790528","MEAN_MOTION":14.3912615,"ECCENTRICITY":0.00059632,"INCLINATION":99.2641,"RA_OF_ASC_NODE":160.7759,"ARG_OF_PERICENTER":12.1907,"MEAN_ANOMALY":42.9339,"EPHEMERIS_TYPE":0,"CLASSIFICATION_TYPE":"U","NORAD_CAT_ID":29955,"ELEMENT_SET_NO":999,"REV_AT_EPOCH":99305,"BSTAR":0.0015048089,"MEAN_MOTION_DOT":4.609e-5,"MEAN_MOTION_DDOT":0}]
